start=new Date('2022-03-17T00:00:00.000Z').valueOf();
sats=[{"OBJECT_ID":"2020-073AT","MEAN_MOTION_DOT":"-0.00004806","ECCENTRICITY":"0.00015570","ARG_OF_PERICENTER":"67.0375","TIME_SYSTEM":"UTC","SEMIMAJOR_AXIS":"6925.442","MEAN_MOTION":"15.06369416","REF_FRAME":"TEME","CLASSIFICATION_TYPE":"U","TLE_LINE1":"1 46711U 20073AT  22075.77193387 -.00004806  00000-0 -30424-3 0  9998","MEAN_ELEMENT_THEORY":"SGP4","MEAN_MOTION_DDOT":"0.0000000000000","EPOCH":"2022-03-16T18:31:35.086368","PERIAPSIS":"546.229","OBJECT_TYPE":"PAYLOAD","OBJECT_NAME":"STARLINK-1813","TLE_LINE2":"2 46711  53.0541 288.5156 0001557  67.0375 293.0778 15.06369416 77999","COUNTRY_CODE":"US","RA_OF_ASC_NODE":"288.5156","SITE":"AFETR","NORAD_CAT_ID":"46711","INCLINATION":"53.0541","PERIOD":"95.594","LAUNCH_DATE":"2020-10-18","MEAN_ANOMALY":"293.0778","DECAY_DATE":null,"REV_AT_EPOCH":"7799","RCS_SIZE":"LARGE","CENTER_NAME":"EARTH","ELEMENT_SET_NO":"999","EPHEMERIS_TYPE":"0","APOAPSIS":"548.386","BSTAR":"-0.00030424000000","FILE":"3362094","GP_ID":"198921450"},{"CENTER_NAME":"EARTH","GP_ID":"198922199","BSTAR":"0.00007208800000","FILE":"3362094","APOAPSIS":"548.385","EPHEMERIS_TYPE":"0","ELEMENT_SET_NO":"999","DECAY_DATE":null,"MEAN_ANOMALY":"297.1704","PERIOD":"95.593","LAUNCH_DATE":"2020-10-18","INCLINATION":"53.0537","NORAD_CAT_ID":"46712","SITE":"AFETR","RA_OF_ASC_NODE":"288.6636","RCS_SIZE":"LARGE","REV_AT_EPOCH":"7798","PERIAPSIS":"546.162","EPOCH":"2022-03-16T17:42:26.428032","MEAN_ELEMENT_THEORY":"SGP4","MEAN_MOTION_DDOT":"0.0000000000000","TLE_LINE1":"1 46712U 20073AU  22075.73780588  .00000792  00000-0  72088-4 0  9991","CLASSIFICATION_TYPE":"U","REF_FRAME":"TEME","MEAN_MOTION":"15.06380575","COUNTRY_CODE":"US","TLE_LINE2":"2 46712  53.0537 288.6636 0001605  62.9449 297.1704 15.06380575 77981","OBJECT_NAME":"STARLINK-1814","OBJECT_TYPE":"PAYLOAD","OBJECT_ID":"2020-073AU","SEMIMAJOR_AXIS":"6925.408","TIME_SYSTEM":"UTC","ARG_OF_PERICENTER":"62.9449","ECCENTRICITY":"0.00016050","MEAN_MOTION_DOT":"0.00000792"},{"REV_AT_EPOCH":"7798","RCS_SIZE":"LARGE","INCLINATION":"53.0523","NORAD_CAT_ID":"46713","SITE":"AFETR","RA_OF_ASC_NODE":"288.6079","DECAY_DATE":null,"MEAN_ANOMALY":"296.5326","LAUNCH_DATE":"2020-10-18","PERIOD":"95.595","EPHEMERIS_TYPE":"0","ELEMENT_SET_NO":"999","GP_ID":"198921108","FILE":"3362094","BSTAR":"-0.00011719000000","APOAPSIS":"548.294","CENTER_NAME":"EARTH","ARG_OF_PERICENTER":"63.5803","ECCENTRICITY":"0.00013680","TIME_SYSTEM":"UTC","MEAN_MOTION_DOT":"-0.00002024","SEMIMAJOR_AXIS":"6925.481","OBJECT_ID":"2020-073AV","COUNTRY_CODE":"US","TLE_LINE2":"2 46713  53.0523 288.6079 0001368  63.5803 296.5326 15.06356643 77987","OBJECT_TYPE":"PAYLOAD","OBJECT_NAME":"STARLINK-1815","TLE_LINE1":"1 46713U 20073AV  22075.74981641 -.00002024  00000-0 -11719-3 0  9991","CLASSIFICATION_TYPE":"U","REF_FRAME":"TEME","MEAN_MOTION":"15.06356643","PERIAPSIS":"546.399","EPOCH":"2022-03-16T17:59:44.137824","MEAN_MOTION_DDOT":"0.0000000000000","MEAN_ELEMENT_THEORY":"SGP4"},{"CENTER_NAME":"EARTH","APOAPSIS":"548.435","GP_ID":"198920712","BSTAR":"-0.00016894000000","FILE":"3362094","ELEMENT_SET_NO":"999","EPHEMERIS_TYPE":"0","MEAN_ANOMALY":"294.0429","LAUNCH_DATE":"2020-10-18","PERIOD":"95.594","DECAY_DATE":null,"SITE":"AFETR","RA_OF_ASC_NODE":"288.6673","NORAD_CAT_ID":"46714","INCLINATION":"53.0537","RCS_SIZE":"LARGE","REV_AT_EPOCH":"7798","MEAN_ELEMENT_THEORY":"SGP4","MEAN_MOTION_DDOT":"0.0000000000000","PERIAPSIS":"546.153","EPOCH":"2022-03-16T17:43:48.872640","MEAN_MOTION":"15.06373703","CLASSIFICATION_TYPE":"U","TLE_LINE1":"1 46714U 20073AW  22075.73876010 -.00002795  00000-0 -16894-3 0  9998","REF_FRAME":"TEME","OBJECT_NAME":"STARLINK-1816","OBJECT_TYPE":"PAYLOAD","COUNTRY_CODE":"US","TLE_LINE2":"2 46714  53.0537 288.6673 0001648  66.0732 294.0429 15.06373703 77986","OBJECT_ID":"2020-073AW","SEMIMAJOR_AXIS":"6925.429","ECCENTRICITY":"0.00016480","ARG_OF_PERICENTER":"66.0732","TIME_SYSTEM":"UTC","MEAN_MOTION_DOT":"-0.00002795"},{"MEAN_MOTION_DOT":"-0.00003434","ECCENTRICITY":"0.00015660","ARG_OF_PERICENTER":"56.7918","TIME_SYSTEM":"UTC","SEMIMAJOR_AXIS":"6925.422","OBJECT_ID":"2020-073AX","TLE_LINE2":"2 46715  53.0550 288.6813 0001566  56.7918 303.3221 15.06375921 77987","COUNTRY_CODE":"US","OBJECT_NAME":"STARLINK-1817","OBJECT_TYPE":"PAYLOAD","REF_FRAME":"TEME","CLASSIFICATION_TYPE":"U","TLE_LINE1":"1 46715U 20073AX  22075.73506748 -.00003434  00000-0 -21188-3 0  9990","MEAN_MOTION":"15.06375921","EPOCH":"2022-03-16T17:38:29.830272","PERIAPSIS":"546.203","MEAN_MOTION_DDOT":"0.0000000000000","MEAN_ELEMENT_THEORY":"SGP4","REV_AT_EPOCH":"7798","RCS_SIZE":"LARGE","NORAD_CAT_ID":"46715","INCLINATION":"53.0550","RA_OF_ASC_NODE":"288.6813","SITE":"AFETR","DECAY_DATE":null,"PERIOD":"95.594","LAUNCH_DATE":"2020-10-18","MEAN_ANOMALY":"303.3221","EPHEMERIS_TYPE":"0","ELEMENT_SET_NO":"999","FILE":"3362094","BSTAR":"-0.00021188000000","GP_ID":"198920951","APOAPSIS":"548.372","CENTER_NAME":"EARTH"},{"RCS_SIZE":"LARGE","REV_AT_EPOCH":"7816","DECAY_DATE":null,"LAUNCH_DATE":"2020-10-18","PERIOD":"95.594","MEAN_ANOMALY":"302.9383","INCLINATION":"53.0529","NORAD_CAT_ID":"46716","RA_OF_ASC_NODE":"306.3009","SITE":"AFETR","FILE":"3361184","BSTAR":"-0.00029742000000","GP_ID":"198856529","APOAPSIS":"548.588","ELEMENT_SET_NO":"999","EPHEMERIS_TYPE":"0","CENTER_NAME":"EARTH","SEMIMAJOR_AXIS":"6925.457","MEAN_MOTION_DOT":"-0.00004705","ARG_OF_PERICENTER":"57.1782","ECCENTRICITY":"0.00018290","TIME_SYSTEM":"UTC","OBJECT_ID":"2020-073AY","TLE_LINE2":"2 46716  53.0529 306.3009 0001829  57.1782 302.9383 15.06364674 78163","COUNTRY_CODE":"US","OBJECT_NAME":"STARLINK-1818","OBJECT_TYPE":"PAYLOAD","EPOCH":"2022-03-16T03:40:32.510784","PERIAPSIS":"546.055","MEAN_ELEMENT_THEORY":"SGP4","MEAN_MOTION_DDOT":"0.0000000000000","REF_FRAME":"TEME","TLE_LINE1":"1 46716U 20073AY  22075.15315406 -.00004705  00000-0 -29742-3 0  9992","CLASSIFICATION_TYPE":"U","MEAN_MOTION":"15.06364674"},{"FILE":"3362094","BSTAR":"-0.00007102500000","GP_ID":"198920609","APOAPSIS":"548.285","EPHEMERIS_TYPE":"0","ELEMENT_SET_NO":"999","CENTER_NAME":"EARTH","RCS_SIZE":"LARGE","REV_AT_EPOCH":"7798","DECAY_DATE":null,"LAUNCH_DATE":"2020-10-18","PERIOD":"95.594","MEAN_ANOMALY":"286.6683","NORAD_CAT_ID":"46717","INCLINATION":"53.0539","RA_OF_ASC_NODE":"288.5898","SITE":"AFETR","TLE_LINE2":"2 46717  53.0539 288.5898 0001441  73.4464 286.6683 15.06376042 77982","COUNTRY_CODE":"US","OBJECT_TYPE":"PAYLOAD","OBJECT_NAME":"STARLINK-1820","EPOCH":"2022-03-16T18:05:02.103648","PERIAPSIS":"546.289","MEAN_MOTION_DDOT":"0.0000000000000","MEAN_ELEMENT_THEORY":"SGP4","REF_FRAME":"TEME","TLE_LINE1":"1 46717U 20073AZ  22075.75349657 -.00001338  00000-0 -71025-4 0  9995","CLASSIFICATION_TYPE":"U","MEAN_MOTION":"15.06376042","SEMIMAJOR_AXIS":"6925.422","MEAN_MOTION_DOT":"-0.00001338","TIME_SYSTEM":"UTC","ARG_OF_PERICENTER":"73.4464","ECCENTRICITY":"0.00014410","OBJECT_ID":"2020-073AZ"},{"MEAN_MOTION_DOT":"-0.00000158","TIME_SYSTEM":"UTC","ARG_OF_PERICENTER":"57.8168","ECCENTRICITY":"0.00014260","SEMIMAJOR_AXIS":"6925.438","OBJECT_ID":"2020-073BA","OBJECT_NAME":"STARLINK-1821","OBJECT_TYPE":"PAYLOAD","TLE_LINE2":"2 46718  53.0532 305.4920 0001426  57.8168 302.2959 15.06370669 77712","COUNTRY_CODE":"US","MEAN_MOTION":"15.06370669","REF_FRAME":"TEME","CLASSIFICATION_TYPE":"U","TLE_LINE1":"1 46718U 20073BA  22075.33005879 -.00000158  00000-0  82775-5 0  9998","MEAN_ELEMENT_THEORY":"SGP4","MEAN_MOTION_DDOT":"0.0000000000000","EPOCH":"2022-03-16T07:55:17.079456","PERIAPSIS":"546.316","REV_AT_EPOCH":"7771","RCS_SIZE":"LARGE","RA_OF_ASC_NODE":"305.4920","SITE":"AFETR","INCLINATION":"53.0532","NORAD_CAT_ID":"46718","PERIOD":"95.594","LAUNCH_DATE":"2020-10-18","MEAN_ANOMALY":"302.2959","DECAY_DATE":null,"ELEMENT_SET_NO":"999","EPHEMERIS_TYPE":"0","APOAPSIS":"548.291","BSTAR":"0.00000827750000","FILE":"3361689","GP_ID":"198888808","CENTER_NAME":"EARTH"},{"RCS_SIZE":"LARGE","REV_AT_EPOCH":"7827","DECAY_DATE":null,"PERIOD":"95.593","LAUNCH_DATE":"2020-10-18","MEAN_ANOMALY":"297.4092","NORAD_CAT_ID":"46719","INCLINATION":"53.0527","RA_OF_ASC_NODE":"268.4910","SITE":"AFETR","BSTAR":"-0.00005544600000","FILE":"3362094","GP_ID":"198921451","APOAPSIS":"548.341","EPHEMERIS_TYPE":"0","ELEMENT_SET_NO":"999","CENTER_NAME":"EARTH","SEMIMAJOR_AXIS":"6925.406","MEAN_MOTION_DOT":"-0.00001107","ARG_OF_PERICENTER":"62.7054","ECCENTRICITY":"0.00015460","TIME_SYSTEM":"UTC","OBJECT_ID":"2020-073BB","TLE_LINE2":"2 46719  53.0527 268.4910 0001546  62.7054 297.4092 15.06381349 78278","COUNTRY_CODE":"US","OBJECT_TYPE":"PAYLOAD","OBJECT_NAME":"STARLINK-1822","EPOCH":"2022-03-16T18:39:31.356864","PERIAPSIS":"546.200","MEAN_MOTION_DDOT":"0.0000000000000","MEAN_ELEMENT_THEORY":"SGP4","REF_FRAME":"TEME","TLE_LINE1":"1 46719U 20073BB  22075.77744626 -.00001107  00000-0 -55446-4 0  9997","CLASSIFICATION_TYPE":"U","MEAN_MOTION":"15.06381349"},{"COUNTRY_CODE":"US","TLE_LINE2":"2 46720  53.0530 215.7718 0001616  12.8810 347.2243 15.58355154 79005","OBJECT_NAME":"STARLINK-1823","OBJECT_TYPE":"PAYLOAD","PERIAPSIS":"391.325","EPOCH":"2022-03-16T15:29:30.684192","MEAN_ELEMENT_THEORY":"SGP4","MEAN_MOTION_DDOT":"0.0000000000000","CLASSIFICATION_TYPE":"U","TLE_LINE1":"1 46720U 20073BC  22075.64549403  .00039690  00000-0  51718-3 0  9994","REF_FRAME":"TEME","MEAN_MOTION":"15.58355154","SEMIMAJOR_AXIS":"6770.554","ARG_OF_PERICENTER":"12.8810","TIME_SYSTEM":"UTC","ECCENTRICITY":"0.00016160","MEAN_MOTION_DOT":"0.00039690","OBJECT_ID":"2020-073BC","GP_ID":"198922200","BSTAR":"0.00051718000000","FILE":"3362094","APOAPSIS":"393.513","EPHEMERIS_TYPE":"0","ELEMENT_SET_NO":"999","CENTER_NAME":"EARTH","RCS_SIZE":"LARGE","REV_AT_EPOCH":"7900","DECAY_DATE":null,"MEAN_ANOMALY":"347.2243","LAUNCH_DATE":"2020-10-18","PERIOD":"92.405","NORAD_CAT_ID":"46720","INCLINATION":"53.0530","SITE":"AFETR","RA_OF_ASC_NODE":"215.7718"}];
